{"fetched_at":"2026-04-08T17:04:03Z","count":12288,"tles":[{"name":"STARLINK-37241","line1":"1 68528U 26068W   26097.11507280 -.00466095  81458-4 -12113-2 0  9991","line2":"2 68528  53.1610   6.8568 0000603 214.7692 145.3297 15.94215439  1162","category":"Starlink"}]}