{
  "norad_id": 68528,
  "name": "STARLINK-37241",
  "history": [
    {
      "epoch": "2026-04-07T02:45:42.289056Z",
      "apogee_km": 290.90349801259345,
      "perigee_km": 290.0992602240731,
      "latitude_deg": -1.0468678446990748e-05,
      "longitude_deg": 130.03398051637214,
      "height_km": 291.7567242801925,
      "semi_major_axis_km": 6668.638379118333,
      "eccentricity": 6.03e-05,
      "inclination_deg": 53.161,
      "raan_deg": 6.8568,
      "arg_perigee_deg": 214.7692,
      "mean_anomaly_deg": 145.3297,
      "mean_motion_rev_day": 15.94215439
    }
  ]
}